ALOS-4 (DAICHI-4)       
1 60182U 24123A   24215.99913605  .00004211  00000+0  57029-3 0  9998
2 60182  97.9221 311.9905 0001523 107.0097 253.1282 14.79481689  4860
